OBJECT_NAME,OBJECT_ID,EPOCH,MEAN_MOTION,ECCENTRICITY,INCLINATION,RA_OF_ASC_NODE,ARG_OF_PERICENTER,MEAN_ANOMALY,EPHEMERIS_TYPE,CLASSIFICATION_TYPE,NORAD_CAT_ID,ELEMENT_SET_NO,REV_AT_EPOCH,BSTAR,MEAN_MOTION_DOT,MEAN_MOTION_DDOT
CUBEBUG-2 (LO-74),2013-066AA,2026-06-09T19:53:06.844416,14.93703888,.00591101,97.8901,109.7759,52.8866,307.7734,0,U,39440,999,67589,.32652584E-3,.3514E-4,0
FUNCUBE-1 (AO-73),2013-066AE,2026-06-09T15:09:57.850848,15.09398599,.00348855,97.8267,131.9204,227.2487,132.5804,0,U,39444,999,67852,.32071403E-3,.5129E-4,0
UWE-3,2013-066AG,2026-06-09T03:04:03.741312,14.96959057,.00487694,97.8686,116.1479,348.2293,11.7784,0,U,39446,999,67637,.30256314E-3,.3499E-4,0
UNISAT-6,2014-033C,2026-06-09T16:05:02.542848,14.88205982,.00464311,97.7869,313.5156,93.3560,267.2970,0,U,40012,999,64504,.27030078E-3,.2487E-4,0
DUCHIFAT-1,2014-033M,2026-06-09T15:55:00.117120,15.63096310,.00042507,98.0468,218.7756,128.7819,231.3818,0,U,40021,999,65457,.97274361E-3,.89241E-3,0
QB50P1,2014-033R,2026-06-09T18:26:22.685568,15.18148380,.00072263,98.0973,171.3946,244.9283,115.1199,0,U,40025,999,65190,.40438593E-3,.8189E-4,0
LILACSAT-2,2015-049K,2026-06-09T22:03:14.234400,15.51205284,.0005246,97.4660,197.4849,280.2645,79.8015,0,U,40908,999,59462,.29593771E-3,.1723E-3,0
FOX-1A (AO-85),2015-058D,2026-06-09T16:56:35.424384,14.90933571,.01300202,64.7760,302.2326,59.5181,301.8695,0,U,40967,999,11245,.22771785E-3,.247E-4,0
CAS-2T & KS-1Q,2016-066G,2026-06-09T16:35:09.159936,14.44669577,.03425248,98.3822,236.5129,152.1594,209.8404,0,U,41847,999,50371,.23509637E-3,.1625E-4,0
RADFXSAT (FOX-1B),2017-073E,2026-06-09T14:25:08.794272,15.12592571,.01506991,97.4720,27.9710,355.5385,4.4491,0,U,43017,999,46424,.33267068E-3,.7602E-4,0
DIWATA-2B,2018-084H,2026-06-09T21:37:11.376768,15.00418620,.00120615,98.1175,356.7935,194.1496,165.9390,0,U,43678,999,41512,.21574721E-3,.265E-4,0
ES'HAIL 2,2018-090A,2026-06-09T20:18:15.557760,1.00273760,.00019012,0.0147,292.4796,186.6072,109.5106,0,U,43700,999,2760,0,.162E-5,0
FOX-1CLIFF (AO-95),2018-099N,2026-06-09T17:40:40.881792,15.26553683,.00087511,97.4390,221.0109,24.8412,335.3246,0,U,43770,999,41208,.4088041E-3,.10631E-3,0
ITASAT,2018-099AE,2026-06-09T17:01:52.150368,15.18962954,.00129088,97.4032,212.3710,26.2362,333.9524,0,U,43786,999,41177,.30001888E-3,.6217E-4,0
JY1SAT (JO-97),2018-099AX,2026-06-09T15:46:17.752224,15.33413519,.00041878,97.4133,223.4666,300.4057,59.6771,0,U,43803,999,41247,.48386134E-3,.15564E-3,0
UWE-4,2018-111E,2026-06-08T17:39:01.184832,15.45597673,.00070848,97.5854,87.7396,15.0599,345.0859,0,U,43880,999,40947,.71405657E-3,.34399E-3,0
TIANYAN 01,2019-093C,2026-06-09T23:26:43.994976,14.86509878,.00149831,97.7530,233.3849,108.0311,252.2539,0,U,44881,999,35034,.12668176E-3,.1069E-4,0
RS-44 & BREEZE-KM R/B,2019-096E,2026-06-09T19:29:59.135136,12.79748665,.02178354,82.5218,344.6065,161.3634,199.5605,0,U,44909,999,30140,.93008389E-4,.35E-6,0
SALSAT,2020-068K,2026-06-09T18:05:43.961856,15.29692121,.00087133,97.8854,163.3666,338.5586,21.5287,0,U,46495,999,31422,.26681047E-3,.7599E-4,0
XW-3 (CAS-9),2021-131B,2026-06-09T23:22:19.612704,14.41350706,.00052753,98.4971,253.4026,113.3866,246.7878,0,U,50466,999,23407,.13060006E-3,.379E-5,0
GREENCUBE (IO-117),2022-080E,2026-06-01T11:09:37.753056,6.42583280,.00088692,70.1435,303.7143,293.3663,66.6064,0,U,53109,999,9105,0,-.3E-7,0
UMKA 1 (RS40S),2023-091G,2026-06-09T18:58:06.203712,15.20732040,.00138982,97.5055,219.5163,140.8638,219.3606,0,U,57172,999,16288,.26739675E-3,.5828E-4,0
CUBESX-HSE 3 (RS42S),2023-091N,2026-06-09T20:30:07.341696,15.31028664,.00121522,97.5096,226.3495,117.2859,242.9621,0,U,57178,999,16330,.43572283E-3,.1302E-3,0
MONITOR-3 (RS58S),2023-091Q,2026-06-09T19:07:53.829984,15.27691685,.00130441,97.5089,224.1897,123.5626,236.6860,0,U,57180,999,16316,.38126256E-3,.1027E-3,0
MONITOR-4 (RS57S),2023-091S,2026-06-09T20:12:39.679488,15.27785692,.00130503,97.5082,224.2056,123.8272,236.4211,0,U,57182,999,16317,.35721388E-3,.9645E-4,0
MONITOR-2 (RS39S),2023-091U,2026-06-09T19:15:24.094944,15.18841299,.00124437,97.5078,219.1332,133.7346,226.4921,0,U,57184,999,16283,.21327368E-3,.4382E-4,0
SVYATOBOR 1 (RS60S),2023-091X,2026-06-09T20:22:29.680032,15.26489176,.00108935,97.5093,224.6258,116.3371,243.8987,0,U,57187,999,16319,.32998431E-3,.8552E-4,0
VIZARD-METEO (RS38S),2023-091Z,2026-06-09T20:25:11.273088,15.35791819,.00086335,97.5095,230.1903,99.6012,260.6207,0,U,57189,999,16356,.46631776E-3,.16188E-3,0
POLYTECH-UNIVERSE 3 (RS46S),2023-091AB,2026-06-09T19:55:58.651680,15.19042670,.00164211,97.5052,218.6658,150.4295,209.7871,0,U,57191,999,16283,.23751582E-3,.4924E-4,0
UTMN 2 (RS27S),2023-091AP,2026-06-09T19:27:10.255104,15.31869383,.00094691,97.5091,227.9302,105.7210,254.5077,0,U,57203,999,16341,.41554365E-3,.12731E-3,0
