CUBEBUG-2 (LO-74)       
1 39440U 13066AA  26160.82855144  .00003514  00000+0  32653-3 0  9992
2 39440  97.8901 109.7759 0059110  52.8866 307.7734 14.93703888675892
FUNCUBE-1 (AO-73)       
1 39444U 13066AE  26160.63191957  .00005129  00000+0  32071-3 0  9998
2 39444  97.8267 131.9204 0034885 227.2487 132.5804 15.09398599678524
UWE-3                   
1 39446U 13066AG  26160.12782108  .00003499  00000+0  30256-3 0  9999
2 39446  97.8686 116.1479 0048769 348.2293  11.7784 14.96959057676378
UNISAT-6                
1 40012U 14033C   26160.67016832  .00002487  00000+0  27030-3 0  9991
2 40012  97.7869 313.5156 0046431  93.3560 267.2970 14.88205982645042
DUCHIFAT-1              
1 40021U 14033M   26160.66319580  .00089241  00000+0  97274-3 0  9996
2 40021  98.0468 218.7756 0004250 128.7819 231.3818 15.63096310654574
QB50P1                  
1 40025U 14033R   26160.76831812  .00008189  00000+0  40439-3 0  9991
2 40025  98.0973 171.3946 0007226 244.9283 115.1199 15.18148380651906
LILACSAT-2              
1 40908U 15049K   26160.91891475  .00017230  00000+0  29594-3 0  9993
2 40908  97.4660 197.4849 0005246 280.2645  79.8015 15.51205284594620
FOX-1A (AO-85)          
1 40967U 15058D   26160.70596556  .00002470  00000+0  22772-3 0  9998
2 40967  64.7760 302.2326 0130020  59.5181 301.8695 14.90933571112458
CAS-2T & KS-1Q          
1 41847U 16066G   26160.69107824  .00001625  00000+0  23510-3 0  9992
2 41847  98.3822 236.5129 0342524 152.1594 209.8404 14.44669577503719
RADFXSAT (FOX-1B)       
1 43017U 17073E   26160.60079623  .00007602  00000+0  33267-3 0  9999
2 43017  97.4720  27.9710 0150699 355.5385   4.4491 15.12592571464246
DIWATA-2B               
1 43678U 18084H   26160.90082612  .00002650  00000+0  21575-3 0  9997
2 43678  98.1175 356.7935 0012061 194.1496 165.9390 15.00418620415126
ES'HAIL 2               
1 43700U 18090A   26160.84601340  .00000162  00000+0  00000+0 0  9990
2 43700   0.0147 292.4796 0001901 186.6072 109.5106  1.00273760 27601
FOX-1CLIFF (AO-95)      
1 43770U 18099N   26160.73658428  .00010631  00000+0  40880-3 0  9999
2 43770  97.4390 221.0109 0008751  24.8412 335.3246 15.26553683412087
ITASAT                  
1 43786U 18099AE  26160.70963137  .00006217  00000+0  30002-3 0  9999
2 43786  97.4032 212.3710 0012908  26.2362 333.9524 15.18962954411771
JY1SAT (JO-97)          
1 43803U 18099AX  26160.65714991  .00015564  00000+0  48386-3 0  9994
2 43803  97.4133 223.4666 0004187 300.4057  59.6771 15.33413519412473
UWE-4                   
1 43880U 18111E   26159.73543038  .00034399  00000+0  71406-3 0  9999
2 43880  97.5854  87.7396 0007084  15.0599 345.0859 15.45597673409471
TIANYAN 01              
1 44881U 19093C   26160.97689809  .00001069  00000+0  12668-3 0  9999
2 44881  97.7530 233.3849 0014983 108.0311 252.2539 14.86509878350348
RS-44 & BREEZE-KM R/B   
1 44909U 19096E   26160.81248999  .00000035  00000+0  93008-4 0  9997
2 44909  82.5218 344.6065 0217835 161.3634 199.5605 12.79748665301400
SALSAT                  
1 46495U 20068K   26160.75398104  .00007599  00000+0  26681-3 0  9991
2 46495  97.8854 163.3666 0008713 338.5586  21.5287 15.29692121314224
XW-3 (CAS-9)            
1 50466U 21131B   26160.97383811  .00000379  00000+0  13060-3 0  9995
2 50466  98.4971 253.4026 0005275 113.3866 246.7878 14.41350706234079
GREENCUBE (IO-117)      
1 53109U 22080E   26152.46502029 -.00000003  00000+0  00000+0 0  9996
2 53109  70.1435 303.7143 0008869 293.3663  66.6064  6.42583280 91055
UMKA 1 (RS40S)          
1 57172U 23091G   26160.79034958  .00005828  00000+0  26740-3 0  9991
2 57172  97.5055 219.5163 0013898 140.8638 219.3606 15.20732040162887
CUBESX-HSE 3 (RS42S)    
1 57178U 23091N   26160.85425164  .00013020  00000+0  43572-3 0  9992
2 57178  97.5096 226.3495 0012152 117.2859 242.9621 15.31028664163306
MONITOR-3 (RS58S)       
1 57180U 23091Q   26160.79715081  .00010270  00000+0  38126-3 0  9991
2 57180  97.5089 224.1897 0013044 123.5626 236.6860 15.27691685163169
MONITOR-4 (RS57S)       
1 57182U 23091S   26160.84212592  .00009645  00000+0  35721-3 0  9990
2 57182  97.5082 224.2056 0013050 123.8272 236.4211 15.27785692163170
MONITOR-2 (RS39S)       
1 57184U 23091U   26160.80236221  .00004382  00000+0  21327-3 0  9993
2 57184  97.5078 219.1332 0012443 133.7346 226.4921 15.18841299162839
SVYATOBOR 1 (RS60S)     
1 57187U 23091X   26160.84895463  .00008552  00000+0  32998-3 0  9998
2 57187  97.5093 224.6258 0010893 116.3371 243.8987 15.26489176163195
VIZARD-METEO (RS38S)    
1 57189U 23091Z   26160.85082492  .00016188  00000+0  46632-3 0  9995
2 57189  97.5095 230.1903 0008633  99.6012 260.6207 15.35791819163565
POLYTECH-UNIVERSE 3 (R*)
1 57191U 23091AB  26160.83053995  .00004924  00000+0  23752-3 0  9995
2 57191  97.5052 218.6658 0016421 150.4295 209.7871 15.19042670162838
UTMN 2 (RS27S)          
1 57203U 23091AP  26160.81053536  .00012731  00000+0  41554-3 0  9993
2 57203  97.5091 227.9302 0009469 105.7210 254.5077 15.31869383163411
